{
"type": "FeatureCollection",
"name": "jabodetabek",
"features": [
{ "type": "Feature", "id": 0, "properties": { "nama": "DKI Jakarta", "luas": 661.5, "populasi": 11135.191, "tahun": 2024, "GDP": 21.166 }, "geometry": { "type": "Point", "coordinates": [ 106.821146609155392, -6.175345470074319 ] } },
{ "type": "Feature", "id": 1, "properties": { "nama": "Depok", "luas": 200.3, "populasi": 1967.831, "tahun": 2024, "GDP": 2.678 }, "geometry": { "type": "Point", "coordinates": [ 106.819056100339139, -6.405788085615313 ] } },
{ "type": "Feature", "id": 2, "properties": { "nama": "Bekasi", "luas": 210.5, "populasi": 2526.133, "tahun": 2024, "GDP": 2.971 }, "geometry": { "type": "Point", "coordinates": [ 106.992307981121655, -6.234816973071062 ] } },
{ "type": "Feature", "id": 3, "properties": { "nama": "Tangerang Selatan", "luas": 147.19, "populasi": 1429.529, "tahun": 2024, "GDP": 4.921 }, "geometry": { "type": "Point", "coordinates": [ 106.707624675392935, -6.31486124648535 ] } },
{ "type": "Feature", "id": 4, "properties": { "nama": "Bogor", "luas": 111.39, "populasi": 1137.018, "tahun": 2024, "GDP": 3.493 }, "geometry": { "type": "Point", "coordinates": [ 106.79638647931705, -6.598301175257504 ] } },
{ "type": "Feature", "id": 5, "properties": { "nama": "Tangerang", "luas": 164.5, "populasi": 1927.815, "tahun": 2024, "GDP": 6.949 }, "geometry": { "type": "Point", "coordinates": [ 106.639013643904661, -6.176658123679715 ] } }
]
}
